{"spkid": "50602645", "covariance": {"labels": ["e", "q", "tp", "node", "peri", "i"], "elements": [{"label": "e", "value": ".1974849122304453", "title": "eccentricity", "units": null, "name": "e", "sigma": 2.68412076796628e-07}, {"units": "au", "title": "perihelion distance", "value": ".943044192411002", "sigma": 3.12962016239182e-07, "name": "q", "label": "q"}, {"label": "tp", "name": "tp", "sigma": 7.88496708889304e-05, "units": "TDB", "title": "time of perihelion passage", "value": "2456556.405130386737"}, {"title": "longitude of the ascending node", "value": "39.0479555648638", "units": "deg", "name": "om", "sigma": 7.55945790432554e-06, "label": "node"}, {"label": "peri", "sigma": 0.0001011660363876, "name": "w", "title": "argument of perihelion", "value": "230.1585069509982", "units": "deg"}, {"units": "deg", "value": "7.149231724101176", "title": "inclination", "sigma": 1.1844119199583e-05, "name": "i", "label": "i"}], "data": [["7.204504297027892E-14", "-8.39993073628796E-14", "2.115805445413578E-11", "1.12437144427288E-12", "2.709965999817397E-11", "2.142255237287862E-12"], ["-8.39993073628796E-14", "9.794522360849429E-14", "-2.466555066841917E-11", "-1.311392632854603E-12", "-3.159924411071298E-11", "-2.497324747988764E-12"], ["2.115805445413578E-11", "-2.466555066841917E-11", "6.217270599292635E-9", "3.314723635842813E-10", "7.958143059416314E-9", "6.293073415212679E-10"], ["1.12437144427288E-12", "-1.311392632854603E-12", "3.314723635842813E-10", "5.71454038072699E-11", "3.844295954640902E-10", "-1.3819409497273E-11"], ["2.709965999817397E-11", "-3.159924411071298E-11", "7.958143059416314E-9", "3.844295954640902E-10", "1.023456691837721E-8", "8.530482244854347E-10"], ["2.142255237287862E-12", "-2.497324747988764E-12", "6.293073415212679E-10", "-1.3819409497273E-11", "8.530482244854347E-10", "1.402831596139315E-10"]], "epoch": "2456324.5"}, "elements": [{"label": "e", "title": "eccentricity", "value": ".1980780946773521", "units": null, "name": "e", "sigma": "2.6524E-7"}, {"label": "a", "sigma": "1.6778E-9", "name": "a", "units": "au", "title": "semi-major axis", "value": "1.176092298598953"}, {"label": "q", "title": "perihelion distance", "value": ".9431341769277649", "units": "au", "sigma": "3.1324E-7", "name": "q"}, {"value": "7.143318935169853", "title": "inclination; angle with respect to x-y ecliptic plane", "units": "deg", "name": "i", "sigma": "1.1875E-5", "label": "i"}, {"value": "38.95495122952205", "title": "longitude of the ascending node", "units": "deg", "name": "om", "sigma": "7.6895E-6", "label": "node"}, {"label": "peri", "value": "230.1475661589448", "title": "argument of perihelion", "units": "deg", "name": "w", "sigma": ".00010207"}, {"label": "M", "name": "ma", "sigma": "8.0271E-5", "title": "mean anomaly", "value": "352.9293124234949", "units": "deg"}, {"units": "TDB", "value": "2461209.649970276942", "title": "time of perihelion passage", "name": "tp", "sigma": ".00010386", "label": "tp"}, {"units": "d", "value": "465.8654853659173", "title": "sidereal orbital period", "name": "per", "sigma": "9.9692E-7", "label": "period"}, {"units": "deg/d", "title": "mean motion", "value": ".7727552508364843", "sigma": "1.6536E-9", "name": "n", "label": "n"}, {"label": "Q", "units": "au", "value": "1.409050420270141", "title": "aphelion distance", "name": "ad", "sigma": "2.0102E-9"}], "epoch": "2461200.5"}